STARLINK-35454          
1 66236U 25245C   25323.58335648 -.02071977  00000+0 -34248-1 0  9994
2 66236  53.1597  79.0209 0001107  58.0049  54.7181 15.54857298  4225
STARLINK-35557          
1 66237U 25245D   25323.58335648 -.02072566  00000+0 -34258-1 0  9991
2 66237  53.1596  79.0169 0001121  58.1196  56.5197 15.54857921  4387
STARLINK-35556          
1 66238U 25245E   25323.58335648 -.02071864  00000+0 -34246-1 0  9999
2 66238  53.1598  79.0126 0001168  62.4363  54.1213 15.54857069  4384
STARLINK-35554          
1 66239U 25245F   25323.58335648 -.02070893  00000+0 -34229-1 0  9992
2 66239  53.1598  79.0090 0001151  62.3659  56.1089 15.54856412  4221
STARLINK-35546          
1 66240U 25245G   25323.58335648 -.02069094  00000+0 -34195-1 0  9997
2 66240  53.1600  79.0052 0001258  62.7143  57.6773 15.54855400  4384
STARLINK-35497          
1 66241U 25245H   25323.58335648 -.02065454  00000+0 -34131-1 0  9994
2 66241  53.1599  79.0016 0001226  62.7396  59.5697 15.54853618  4337
STARLINK-35480          
1 66242U 25245J   25323.58335648 -.02068034  00000+0 -34178-1 0  9993
2 66242  53.1598  78.9899 0001144  62.9624  65.0974 15.54854758  4380
STARLINK-35495          
1 66243U 25245K   25323.58335648 -.02069904  00000+0 -34210-1 0  9998
2 66243  53.1596  78.9977 0001247  61.4820  62.7431 15.54856029  4387
STARLINK-35517          
1 66244U 25245L   25323.58335648 -.02069800  00000+0 -34208-1 0  9991
2 66244  53.1598  78.9927 0001225  62.7399  63.4025 15.54855831  4170
STARLINK-35503          
1 66245U 25245M   25323.58335648 -.02068804  00000+0 -34191-1 0  9996
2 66245  53.1600  78.9841 0001179  63.5054  66.4714 15.54854991  4337
STARLINK-35434          
1 66246U 25245N   25323.58335648 -.02070544  00000+0 -34222-1 0  9996
2 66246  53.1598  78.9792 0001194  63.4399  68.4536 15.54855787  4177
STARLINK-35481          
1 66247U 25245P   25323.58335648 -.02071207  00000+0 -34234-1 0  9997
2 66247  53.1600  78.9759 0001157  60.4330  73.3759 15.54856753  4385
