CCSDS_OMM_VERS = 2.0
CREATION_DATE  = 
ORIGINATOR     = 

OBJECT_NAME    = STARLINK-35454
OBJECT_ID      = 2025-245C
CENTER_NAME    = EARTH
REF_FRAME      = TEME
TIME_SYSTEM    = UTC
MEAN_ELEMENT_THEORY = SGP/SGP4

EPOCH          = 2025-11-19T14:00:01.999872
MEAN_MOTION    = 15.54857298
ECCENTRICITY   = .00011079
INCLINATION    = 53.1597
RA_OF_ASC_NODE = 79.0209
ARG_OF_PERICENTER = 58.0049
MEAN_ANOMALY   = 54.7181

EPHEMERIS_TYPE = 0
CLASSIFICATION_TYPE = U
NORAD_CAT_ID   = 66236
ELEMENT_SET_NO = 999
REV_AT_EPOCH   = 422
BSTAR          = -.3424814E-1
MEAN_MOTION_DOT = -.2071977E-1
MEAN_MOTION_DDOT = 0

CCSDS_OMM_VERS = 2.0
CREATION_DATE  = 
ORIGINATOR     = 

OBJECT_NAME    = STARLINK-35557
OBJECT_ID      = 2025-245D
CENTER_NAME    = EARTH
REF_FRAME      = TEME
TIME_SYSTEM    = UTC
MEAN_ELEMENT_THEORY = SGP/SGP4

EPOCH          = 2025-11-19T14:00:01.999872
MEAN_MOTION    = 15.54857921
ECCENTRICITY   = .00011214
INCLINATION    = 53.1596
RA_OF_ASC_NODE = 79.0169
ARG_OF_PERICENTER = 58.1196
MEAN_ANOMALY   = 56.5197

EPHEMERIS_TYPE = 0
CLASSIFICATION_TYPE = U
NORAD_CAT_ID   = 66237
ELEMENT_SET_NO = 999
REV_AT_EPOCH   = 438
BSTAR          = -.34258131E-1
MEAN_MOTION_DOT = -.2072566E-1
MEAN_MOTION_DDOT = 0

CCSDS_OMM_VERS = 2.0
CREATION_DATE  = 
ORIGINATOR     = 

OBJECT_NAME    = STARLINK-35556
OBJECT_ID      = 2025-245E
CENTER_NAME    = EARTH
REF_FRAME      = TEME
TIME_SYSTEM    = UTC
MEAN_ELEMENT_THEORY = SGP/SGP4

EPOCH          = 2025-11-19T14:00:01.999872
MEAN_MOTION    = 15.54857069
ECCENTRICITY   = .00011686
INCLINATION    = 53.1598
RA_OF_ASC_NODE = 79.0126
ARG_OF_PERICENTER = 62.4363
MEAN_ANOMALY   = 54.1213

EPHEMERIS_TYPE = 0
CLASSIFICATION_TYPE = U
NORAD_CAT_ID   = 66238
ELEMENT_SET_NO = 999
REV_AT_EPOCH   = 438
BSTAR          = -.34245647E-1
MEAN_MOTION_DOT = -.2071864E-1
MEAN_MOTION_DDOT = 0

CCSDS_OMM_VERS = 2.0
CREATION_DATE  = 
ORIGINATOR     = 

OBJECT_NAME    = STARLINK-35554
OBJECT_ID      = 2025-245F
CENTER_NAME    = EARTH
REF_FRAME      = TEME
TIME_SYSTEM    = UTC
MEAN_ELEMENT_THEORY = SGP/SGP4

EPOCH          = 2025-11-19T14:00:01.999872
MEAN_MOTION    = 15.54856412
ECCENTRICITY   = .00011513
INCLINATION    = 53.1598
RA_OF_ASC_NODE = 79.0090
ARG_OF_PERICENTER = 62.3659
MEAN_ANOMALY   = 56.1089

EPHEMERIS_TYPE = 0
CLASSIFICATION_TYPE = U
NORAD_CAT_ID   = 66239
ELEMENT_SET_NO = 999
REV_AT_EPOCH   = 422
BSTAR          = -.34228666E-1
MEAN_MOTION_DOT = -.2070893E-1
MEAN_MOTION_DDOT = 0

CCSDS_OMM_VERS = 2.0
CREATION_DATE  = 
ORIGINATOR     = 

OBJECT_NAME    = STARLINK-35546
OBJECT_ID      = 2025-245G
CENTER_NAME    = EARTH
REF_FRAME      = TEME
TIME_SYSTEM    = UTC
MEAN_ELEMENT_THEORY = SGP/SGP4

EPOCH          = 2025-11-19T14:00:01.999872
MEAN_MOTION    = 15.54855400
ECCENTRICITY   = .00012588
INCLINATION    = 53.1600
RA_OF_ASC_NODE = 79.0052
ARG_OF_PERICENTER = 62.7143
MEAN_ANOMALY   = 57.6773

EPHEMERIS_TYPE = 0
CLASSIFICATION_TYPE = U
NORAD_CAT_ID   = 66240
ELEMENT_SET_NO = 999
REV_AT_EPOCH   = 438
BSTAR          = -.34195339E-1
MEAN_MOTION_DOT = -.2069094E-1
MEAN_MOTION_DDOT = 0

CCSDS_OMM_VERS = 2.0
CREATION_DATE  = 
ORIGINATOR     = 

OBJECT_NAME    = STARLINK-35497
OBJECT_ID      = 2025-245H
CENTER_NAME    = EARTH
REF_FRAME      = TEME
TIME_SYSTEM    = UTC
MEAN_ELEMENT_THEORY = SGP/SGP4

EPOCH          = 2025-11-19T14:00:01.999872
MEAN_MOTION    = 15.54853618
ECCENTRICITY   = .00012265
INCLINATION    = 53.1599
RA_OF_ASC_NODE = 79.0016
ARG_OF_PERICENTER = 62.7396
MEAN_ANOMALY   = 59.5697

EPHEMERIS_TYPE = 0
CLASSIFICATION_TYPE = U
NORAD_CAT_ID   = 66241
ELEMENT_SET_NO = 999
REV_AT_EPOCH   = 433
BSTAR          = -.34130501E-1
MEAN_MOTION_DOT = -.2065454E-1
MEAN_MOTION_DDOT = 0

CCSDS_OMM_VERS = 2.0
CREATION_DATE  = 
ORIGINATOR     = 

OBJECT_NAME    = STARLINK-35480
OBJECT_ID      = 2025-245J
CENTER_NAME    = EARTH
REF_FRAME      = TEME
TIME_SYSTEM    = UTC
MEAN_ELEMENT_THEORY = SGP/SGP4

EPOCH          = 2025-11-19T14:00:01.999872
MEAN_MOTION    = 15.54854758
ECCENTRICITY   = .00011449
INCLINATION    = 53.1598
RA_OF_ASC_NODE = 78.9899
ARG_OF_PERICENTER = 62.9624
MEAN_ANOMALY   = 65.0974

EPHEMERIS_TYPE = 0
CLASSIFICATION_TYPE = U
NORAD_CAT_ID   = 66242
ELEMENT_SET_NO = 999
REV_AT_EPOCH   = 438
BSTAR          = -.34177822E-1
MEAN_MOTION_DOT = -.2068034E-1
MEAN_MOTION_DDOT = 0

CCSDS_OMM_VERS = 2.0
CREATION_DATE  = 
ORIGINATOR     = 

OBJECT_NAME    = STARLINK-35495
OBJECT_ID      = 2025-245K
CENTER_NAME    = EARTH
REF_FRAME      = TEME
TIME_SYSTEM    = UTC
MEAN_ELEMENT_THEORY = SGP/SGP4

EPOCH          = 2025-11-19T14:00:01.999872
MEAN_MOTION    = 15.54856029
ECCENTRICITY   = .00012471
INCLINATION    = 53.1596
RA_OF_ASC_NODE = 78.9977
ARG_OF_PERICENTER = 61.4820
MEAN_ANOMALY   = 62.7431

EPHEMERIS_TYPE = 0
CLASSIFICATION_TYPE = U
NORAD_CAT_ID   = 66243
ELEMENT_SET_NO = 999
REV_AT_EPOCH   = 438
BSTAR          = -.34209701E-1
MEAN_MOTION_DOT = -.2069904E-1
MEAN_MOTION_DDOT = 0

CCSDS_OMM_VERS = 2.0
CREATION_DATE  = 
ORIGINATOR     = 

OBJECT_NAME    = STARLINK-35517
OBJECT_ID      = 2025-245L
CENTER_NAME    = EARTH
REF_FRAME      = TEME
TIME_SYSTEM    = UTC
MEAN_ELEMENT_THEORY = SGP/SGP4

EPOCH          = 2025-11-19T14:00:01.999872
MEAN_MOTION    = 15.54855831
ECCENTRICITY   = .00012253
INCLINATION    = 53.1598
RA_OF_ASC_NODE = 78.9927
ARG_OF_PERICENTER = 62.7399
MEAN_ANOMALY   = 63.4025

EPHEMERIS_TYPE = 0
CLASSIFICATION_TYPE = U
NORAD_CAT_ID   = 66244
ELEMENT_SET_NO = 999
REV_AT_EPOCH   = 417
BSTAR          = -.34208272E-1
MEAN_MOTION_DOT = -.20698E-1
MEAN_MOTION_DDOT = 0

CCSDS_OMM_VERS = 2.0
CREATION_DATE  = 
ORIGINATOR     = 

OBJECT_NAME    = STARLINK-35503
OBJECT_ID      = 2025-245M
CENTER_NAME    = EARTH
REF_FRAME      = TEME
TIME_SYSTEM    = UTC
MEAN_ELEMENT_THEORY = SGP/SGP4

EPOCH          = 2025-11-19T14:00:01.999872
MEAN_MOTION    = 15.54854991
ECCENTRICITY   = .00011795
INCLINATION    = 53.1600
RA_OF_ASC_NODE = 78.9841
ARG_OF_PERICENTER = 63.5054
MEAN_ANOMALY   = 66.4714

EPHEMERIS_TYPE = 0
CLASSIFICATION_TYPE = U
NORAD_CAT_ID   = 66245
ELEMENT_SET_NO = 999
REV_AT_EPOCH   = 433
BSTAR          = -.34191424E-1
MEAN_MOTION_DOT = -.2068804E-1
MEAN_MOTION_DDOT = 0

CCSDS_OMM_VERS = 2.0
CREATION_DATE  = 
ORIGINATOR     = 

OBJECT_NAME    = STARLINK-35434
OBJECT_ID      = 2025-245N
CENTER_NAME    = EARTH
REF_FRAME      = TEME
TIME_SYSTEM    = UTC
MEAN_ELEMENT_THEORY = SGP/SGP4

EPOCH          = 2025-11-19T14:00:01.999872
MEAN_MOTION    = 15.54855787
ECCENTRICITY   = .00011946
INCLINATION    = 53.1598
RA_OF_ASC_NODE = 78.9792
ARG_OF_PERICENTER = 63.4399
MEAN_ANOMALY   = 68.4536

EPHEMERIS_TYPE = 0
CLASSIFICATION_TYPE = U
NORAD_CAT_ID   = 66246
ELEMENT_SET_NO = 999
REV_AT_EPOCH   = 417
BSTAR          = -.34222487E-1
MEAN_MOTION_DOT = -.2070544E-1
MEAN_MOTION_DDOT = 0

CCSDS_OMM_VERS = 2.0
CREATION_DATE  = 
ORIGINATOR     = 

OBJECT_NAME    = STARLINK-35481
OBJECT_ID      = 2025-245P
CENTER_NAME    = EARTH
REF_FRAME      = TEME
TIME_SYSTEM    = UTC
MEAN_ELEMENT_THEORY = SGP/SGP4

EPOCH          = 2025-11-19T14:00:01.999872
MEAN_MOTION    = 15.54856753
ECCENTRICITY   = .00011577
INCLINATION    = 53.1600
RA_OF_ASC_NODE = 78.9759
ARG_OF_PERICENTER = 60.4330
MEAN_ANOMALY   = 73.3759

EPHEMERIS_TYPE = 0
CLASSIFICATION_TYPE = U
NORAD_CAT_ID   = 66247
ELEMENT_SET_NO = 999
REV_AT_EPOCH   = 438
BSTAR          = -.34233996E-1
MEAN_MOTION_DOT = -.2071207E-1
MEAN_MOTION_DDOT = 0

